NORAD_CAT_ID,OBJECT_NAME,OBJECT_TYPE,EPOCH,MEAN_MOTION,ECCENTRICITY,INCLINATION,RA_OF_ASC_NODE,ARG_OF_PERICENTER,MEAN_ANOMALY,BSTAR,MEAN_MOTION_DOT,MEAN_MOTION_DDOT,TLE_LINE0,TLE_LINE1,TLE_LINE2,SEMIMAJOR_AXIS,PERIOD,APOGEE,PERIGEE,DECAYED
53164.0,STARLINK-4116,PAYLOAD,2023-11-12 10:20:37,15.08843923,0.0001451,53.2182,12.1029,91.537,268.5788,0.00013148,1.805e-05,0.0,0 STARLINK-4116,1 53164U 22083AJ  23316.43099108  .00001805  00000-0  13148-3 0  9997,2 53164  53.2182  12.1029 0001451  91.5370 268.5788 15.08843923 73932,6917.868,95.437,540.737,538.73,0.0
53164.0,STARLINK-4116,PAYLOAD,2023-11-13 03:49:52,15.08831592,0.0001543,53.2179,8.8311,89.8855,270.2314,0.00025228,3.728e-05,0.0,0 STARLINK-4116,1 53164U 22083AJ  23317.15963546  .00003728  00000-0  25228-3 0  9991,2 53164  53.2179   8.8311 0001543  89.8855 270.2314 15.08831592 74041,6917.906,95.438,540.839,538.704,0.0
53164.0,STARLINK-4116,PAYLOAD,2023-11-13 10:11:24,15.08844315,0.0001688,53.2192,7.6426,90.7364,269.3822,0.00023125,3.395e-05,0.0,0 STARLINK-4116,1 53164U 22083AJ  23317.42458820  .00003395  00000-0  23125-3 0  9999,2 53164  53.2192   7.6426 0001688  90.7364 269.3822 15.08844315 74080,6917.867,95.437,540.9,538.564,0.0
53164.0,STARLINK-4116,PAYLOAD,2023-11-14 03:40:39,15.08831113,0.000106,53.2192,4.3717,78.0969,282.0142,-1.4435e-05,-5.17e-06,0.0,0 STARLINK-4116,1 53164U 22083AJ  23318.15323936 -.00000517  00000-0 -14435-4 0  9999,2 53164  53.2192   4.3717 0001060  78.0969 282.0142 15.08831113 74192,6917.908,95.438,540.506,539.039,0.0
53164.0,STARLINK-4116,PAYLOAD,2023-11-14 10:02:12,15.08837853,0.000154,53.2186,3.1844,95.6742,264.4425,2.3245e-05,8.2e-07,0.0,0 STARLINK-4116,1 53164U 22083AJ  23318.41819467  .00000082  00000-0  23245-4 0  9991,2 53164  53.2186   3.1844 0001540  95.6742 264.4425 15.08837853 74230,6917.887,95.438,540.817,538.687,0.0
53164.0,STARLINK-4116,PAYLOAD,2023-11-14 13:12:58,15.08840154,0.0001489,53.2178,2.5875,94.3624,265.7538,5.5321e-05,5.93e-06,0.0,0 STARLINK-4116,1 53164U 22083AJ  23318.55067248  .00000593  00000-0  55321-4 0  9995,2 53164  53.2178   2.5875 0001489  94.3624 265.7538 15.08840154 73624,6917.88,95.438,540.775,538.715,0.0
53164.0,STARLINK-4116,PAYLOAD,2023-11-14 19:34:30,15.08838569,0.0001477,53.2177,1.3977,93.8343,266.2818,4.3356e-05,4.02e-06,0.0,0 STARLINK-4116,1 53164U 22083AJ  23318.81563417  .00000402  00000-0  43356-4 0  9997,2 53164  53.2177   1.3977 0001477  93.8343 266.2818 15.08838569 73660,6917.885,95.438,540.772,538.728,0.0
53164.0,STARLINK-4116,PAYLOAD,2023-11-15 08:17:36,15.08838946,0.0001481,53.218,359.0197,92.672,267.4441,1.0469e-06,-2.71e-06,0.0,0 STARLINK-4116,1 53164U 22083AJ  23319.34555643 -.00000271  00000-0  10469-5 0  9993,2 53164  53.2180 359.0197 0001481  92.6720 267.4441 15.08838946 73745,6917.884,95.438,540.773,538.724,0.0
53164.0,STARLINK-4116,PAYLOAD,2023-11-15 19:25:18,15.0883496,0.0001515,53.218,356.9383,95.4282,264.6883,0.00013694,1.892e-05,0.0,0 STARLINK-4116,1 53164U 22083AJ  23319.80923748  .00001892  00000-0  13694-3 0  9999,2 53164  53.2180 356.9383 0001515  95.4282 264.6883 15.08834960 74449,6917.896,95.438,540.809,538.713,0.0
53164.0,STARLINK-4116,PAYLOAD,2023-11-16 01:46:49,15.08887499,0.0001103,53.218,355.7486,101.8206,258.291,-0.00065741,-0.00010749,0.0,0 STARLINK-4116,1 53164U 22083AJ  23320.07418136 -.00010749  00000-0 -65741-3 0  9993,2 53164  53.2180 355.7486 0001103 101.8206 258.2910 15.08887499 74480,6917.735,95.435,540.363,538.837,0.0
53164.0,STARLINK-4116,PAYLOAD,2023-11-16 08:08:23,15.08832407,0.000146,53.2182,354.5594,97.2769,262.8389,0.00021861,3.192e-05,0.0,0 STARLINK-4116,1 53164U 22083AJ  23320.33915861  .00003192  00000-0  21861-3 0  9996,2 53164  53.2182 354.5594 0001460  97.2769 262.8389 15.08832407 74522,6917.904,95.438,540.779,538.759,0.0
53164.0,STARLINK-4116,PAYLOAD,2023-11-16 19:16:04,15.08841559,0.0001473,53.2183,352.4792,91.5167,268.5994,0.00010516,1.386e-05,0.0,0 STARLINK-4116,1 53164U 22083AJ  23320.80283547  .00001386  00000-0  10516-3 0  9995,2 53164  53.2183 352.4792 0001473  91.5167 268.5994 15.08841559 73963,6917.876,95.437,540.76,538.722,0.0
53164.0,STARLINK-4116,PAYLOAD,2023-11-17 07:59:10,15.08831529,0.000153,53.2182,350.1002,86.5374,273.5793,7.753e-05,9.46e-06,0.0,0 STARLINK-4116,1 53164U 22083AJ  23321.33276525  .00000946  00000-0  77530-4 0  9993,2 53164  53.2182 350.1002 0001530  86.5374 273.5793 15.08831529 74677,6917.906,95.438,540.83,538.713,0.0
53164.0,STARLINK-4116,PAYLOAD,2023-11-17 19:06:52,15.08839211,0.0001542,53.2183,348.0185,84.9597,275.1571,8.6952e-05,1.096e-05,0.0,0 STARLINK-4116,1 53164U 22083AJ  23321.79644094  .00001096  00000-0  86952-4 0  9998,2 53164  53.2183 348.0185 0001542  84.9597 275.1571 15.08839211 74744,6917.883,95.438,540.815,538.681,0.0
53164.0,STARLINK-4116,PAYLOAD,2023-11-18 09:25:20,15.08844956,0.0001505,53.2181,345.3422,85.3168,274.7996,0.00010083,1.317e-05,0.0,0 STARLINK-4116,1 53164U 22083AJ  23322.39259681  .00001317  00000-0  10083-3 0  9996,2 53164  53.2181 345.3422 0001505  85.3168 274.7996 15.08844956 74203,6917.865,95.437,540.771,538.689,0.0
53164.0,STARLINK-4116,PAYLOAD,2023-11-18 18:57:39,15.08842862,0.0001524,53.2183,343.558,84.8158,275.3008,5.8517e-05,6.43e-06,0.0,0 STARLINK-4116,1 53164U 22083AJ  23322.79003837  .00000643  00000-0  58517-4 0  9996,2 53164  53.2183 343.5580 0001524  84.8158 275.3008 15.08842862 74265,6917.872,95.437,540.791,538.682,0.0
53164.0,STARLINK-4116,PAYLOAD,2023-11-19 01:19:11,15.08837597,0.00015,53.218,342.3681,85.7187,274.3976,0.00010607,1.4e-05,0.0,0 STARLINK-4116,1 53164U 22083AJ  23323.05499985  .00001400  00000-0  10607-3 0  9998,2 53164  53.2180 342.3681 0001500  85.7187 274.3976 15.08837597 74933,6917.888,95.438,540.79,538.715,0.0
53164.0,STARLINK-4116,PAYLOAD,2023-11-19 07:40:44,15.08839869,0.0001495,53.2181,341.1785,86.3461,273.7702,0.00010256,1.345e-05,0.0,0 STARLINK-4116,1 53164U 22083AJ  23323.31995973  .00001345  00000-0  10256-3 0  9993,2 53164  53.2181 341.1785 0001495  86.3461 273.7702 15.08839869 74340,6917.881,95.438,540.78,538.712,0.0
53164.0,STARLINK-4116,PAYLOAD,2023-11-19 18:48:26,15.08842916,0.0001499,53.2181,339.0973,85.6369,274.4794,8.9861e-05,1.143e-05,0.0,0 STARLINK-4116,1 53164U 22083AJ  23323.78363785  .00001143  00000-0  89861-4 0  9999,2 53164  53.2181 339.0973 0001499  85.6369 274.4794 15.08842916 74412,6917.871,95.437,540.773,538.699,0.0
53164.0,STARLINK-4116,PAYLOAD,2023-11-20 02:45:22,15.08842362,0.0001505,53.2183,337.6105,85.9698,274.1466,5.5175e-05,5.9e-06,0.0,0 STARLINK-4116,1 53164U 22083AJ  23324.11483798  .00000590  00000-0  55175-4 0  9990,2 53164  53.2183 337.6105 0001505  85.9698 274.1466 15.08842362 75094,6917.873,95.437,540.779,538.697,0.0
53164.0,STARLINK-4116,PAYLOAD,2023-11-20 07:31:31,15.0884604,0.0001362,53.2177,336.7174,91.9309,268.1839,9.8122e-05,1.274e-05,0.0,0 STARLINK-4116,1 53164U 22083AJ  23324.31355405  .00001274  00000-0  98122-4 0  9994,2 53164  53.2177 336.7174 0001362  91.9309 268.1839 15.08846040 74497,6917.862,95.437,540.669,538.785,0.0
53164.0,STARLINK-4116,PAYLOAD,2023-11-21 04:11:31,15.08841826,0.0001423,53.2172,332.8506,96.5131,263.6024,5.5007e-05,5.88e-06,0.0,0 STARLINK-4116,1 53164U 22083AJ  23325.17467582  .00000588  00000-0  55007-4 0  9991,2 53164  53.2172 332.8506 0001423  96.5131 263.6024 15.08841826 75258,6917.875,95.437,540.724,538.755,0.0
53164.0,STARLINK-4116,PAYLOAD,2023-11-21 07:22:18,15.08844929,0.0001461,53.2176,332.2559,99.3457,260.77,7.8109e-05,9.56e-06,0.0,0 STARLINK-4116,1 53164U 22083AJ  23325.30715338  .00000956  00000-0  78109-4 0  9998,2 53164  53.2176 332.2559 0001461  99.3457 260.7700 15.08844929 74646,6917.865,95.437,540.741,538.72,0.0
53164.0,STARLINK-4116,PAYLOAD,2023-11-22 05:37:42,15.08842804,0.0001436,53.2176,328.0938,98.2164,261.8991,5.1249e-05,5.28e-06,0.0,0 STARLINK-4116,1 53164U 22083AJ  23326.23451628  .00000528  00000-0  51249-4 0  9991,2 53164  53.2176 328.0938 0001436  98.2164 261.8991 15.08842804 75415,6917.872,95.437,540.73,538.743,0.0
53164.0,STARLINK-4116,PAYLOAD,2023-11-23 05:28:29,15.08843924,0.0001434,53.2174,323.6328,87.51,272.6057,9.0371e-05,1.151e-05,0.0,0 STARLINK-4116,1 53164U 22083AJ  23327.22811597  .00001151  00000-0  90371-4 0  9998,2 53164  53.2174 323.6328 0001434  87.5100 272.6057 15.08843924 74939,6917.868,95.437,540.725,538.741,0.0
53164.0,STARLINK-4116,PAYLOAD,2023-11-23 22:57:44,15.08833432,0.0001537,53.2179,320.3633,89.5154,270.6014,2.271e-05,7.3e-07,0.0,0 STARLINK-4116,1 53164U 22083AJ  23327.95676762  .00000073  00000-0  22710-4 0  9995,2 53164  53.2179 320.3633 0001537  89.5154 270.6014 15.08833432 75049,6917.9,95.438,540.829,538.702,0.0
53164.0,STARLINK-4116,PAYLOAD,2023-11-24 03:43:54,15.08830012,0.0001605,53.2169,319.4694,93.8688,266.2488,-7.2717e-05,-1.445e-05,0.0,0 STARLINK-4116,1 53164U 22083AJ  23328.15548659 -.00001445  00000-0 -72717-4 0  9999,2 53164  53.2169 319.4694 0001605  93.8688 266.2488 15.08830012 75700,6917.911,95.438,540.886,538.666,0.0
53164.0,STARLINK-4116,PAYLOAD,2023-11-24 08:30:03,15.08834826,0.0001548,53.2183,318.577,83.4815,276.6353,3.28e-05,2.34e-06,0.0,0 STARLINK-4116,1 53164U 22083AJ  23328.35420918  .00000234  00000-0  32800-4 0  9990,2 53164  53.2183 318.5770 0001548  83.4815 276.6353 15.08834826 75101,6917.896,95.438,540.832,538.69,0.0
53164.0,STARLINK-4116,PAYLOAD,2023-11-24 22:48:31,15.08832899,0.0001564,53.2181,315.9007,99.4196,260.6973,0.00012571,1.713e-05,0.0,0 STARLINK-4116,1 53164U 22083AJ  23328.95036927  .00001713  00000-0  12571-3 0  9994,2 53164  53.2181 315.9007 0001564  99.4196 260.6973 15.08832899 75198,6917.902,95.438,540.849,538.685,0.0
53164.0,STARLINK-4116,PAYLOAD,2023-11-25 03:34:41,15.08834058,0.0001623,53.2182,315.0094,100.2495,259.868,0.00024499,3.613e-05,0.0,0 STARLINK-4116,1 53164U 22083AJ  23329.14908672  .00003613  00000-0  24499-3 0  9994,2 53164  53.2182 315.0094 0001623 100.2495 259.8680 15.08834058 75852,6917.899,95.438,540.886,538.641,0.0
